SL-3 R/B                
1 13403U 82079B   26006.24079784  .00006435  00000+0  26261-3 0  9999
2 13403  81.1469 266.7761 0026021  19.8901 340.3340 15.23942279368183
SL-14 R/B               
1 13553U 82092B   26006.26985406  .00000653  00000+0  70641-4 0  9997
2 13553  82.5668 199.7696 0021166 144.9435  27.9693 14.86584958319655
SL-3 R/B                
1 13819U 83010B   26006.27207337  .00015976  00000+0  34498-3 0  9997
2 13819  81.1037  78.6584 0016188 262.9832  96.9571 15.44259360348302
SL-3 R/B                
1 14208U 83075B   26006.27581649  .00012579  00000+0  34916-3 0  9993
2 14208  97.6111   8.5929 0024562  92.7458 267.6597 15.36743433320566
COSMOS 1536             
1 14699U 84013A   26006.18693909  .00008985  00000+0  38073-3 0  9997
2 14699  82.5457 169.9136 0015294 138.9140 221.3252 15.22897427263100
SL-14 R/B               
1 14820U 84027B   26006.26988066  .00000675  00000+0  74402-4 0  9993
2 14820  82.5430 303.5536 0017974 175.2203 184.9188 14.85906561238368
SL-8 R/B                
1 15483U 85006B   26006.30408468  .00000372  00000+0  13228-3 0  9997
2 15483  74.0458  15.9375 0019635 303.6592  66.9273 14.37740254145069
SL-12 R/B(2)            
1 15772U 85042D   26006.31889498  .00000083  00000+0  58772-4 0  9998
2 15772  71.1066 219.4951 0036885 225.2749 307.6579 14.21960068105524
SL-14 R/B               
1 15945U 85069B   26006.27365051  .00000639  00000+0  69519-4 0  9996
2 15945  82.5267  83.6386 0019786  42.8240 317.4514 14.86357125163569
SL-16 R/B               
1 16182U 85097B   26006.15885030  .00000303  00000+0  17562-3 0  9990
2 16182  71.0032 272.1958 0008164 335.1789 176.4289 14.16588968 78370
SL-14 R/B               
1 16496U 86006B   26006.26655671  .00000872  00000+0  89860-4 0  9999
2 16496  82.5284 318.4742 0078051 119.0478 241.8587 14.86709899139938
COSMOS 1743             
1 16719U 86034A   26006.33396208  .00035616  00000+0  55133-3 0  9993
2 16719  82.5360 139.0175 0005129 156.9250 203.2235 15.53870203170550
