CCSDS_OMM_VERS = 2.0
CREATION_DATE  = 
ORIGINATOR     = 

OBJECT_NAME    = SL-3 R/B
OBJECT_ID      = 1982-079B
CENTER_NAME    = EARTH
REF_FRAME      = TEME
TIME_SYSTEM    = UTC
MEAN_ELEMENT_THEORY = SGP/SGP4

EPOCH          = 2026-01-06T05:46:44.933376
MEAN_MOTION    = 15.23942279
ECCENTRICITY   = .00260216
INCLINATION    = 81.1469
RA_OF_ASC_NODE = 266.7761
ARG_OF_PERICENTER = 19.8901
MEAN_ANOMALY   = 340.3340

EPHEMERIS_TYPE = 0
CLASSIFICATION_TYPE = U
NORAD_CAT_ID   = 13403
ELEMENT_SET_NO = 999
REV_AT_EPOCH   = 36818
BSTAR          = .26260973E-3
MEAN_MOTION_DOT = .6435E-4
MEAN_MOTION_DDOT = 0

CCSDS_OMM_VERS = 2.0
CREATION_DATE  = 
ORIGINATOR     = 

OBJECT_NAME    = SL-14 R/B
OBJECT_ID      = 1982-092B
CENTER_NAME    = EARTH
REF_FRAME      = TEME
TIME_SYSTEM    = UTC
MEAN_ELEMENT_THEORY = SGP/SGP4

EPOCH          = 2026-01-06T06:28:35.390784
MEAN_MOTION    = 14.86584958
ECCENTRICITY   = .00211661
INCLINATION    = 82.5668
RA_OF_ASC_NODE = 199.7696
ARG_OF_PERICENTER = 144.9435
MEAN_ANOMALY   = 27.9693

EPHEMERIS_TYPE = 0
CLASSIFICATION_TYPE = U
NORAD_CAT_ID   = 13553
ELEMENT_SET_NO = 999
REV_AT_EPOCH   = 31965
BSTAR          = .70640538E-4
MEAN_MOTION_DOT = .653E-5
MEAN_MOTION_DDOT = 0

CCSDS_OMM_VERS = 2.0
CREATION_DATE  = 
ORIGINATOR     = 

OBJECT_NAME    = SL-3 R/B
OBJECT_ID      = 1983-010B
CENTER_NAME    = EARTH
REF_FRAME      = TEME
TIME_SYSTEM    = UTC
MEAN_ELEMENT_THEORY = SGP/SGP4

EPOCH          = 2026-01-06T06:31:47.139168
MEAN_MOTION    = 15.44259360
ECCENTRICITY   = .00161881
INCLINATION    = 81.1037
RA_OF_ASC_NODE = 78.6584
ARG_OF_PERICENTER = 262.9832
MEAN_ANOMALY   = 96.9571

EPHEMERIS_TYPE = 0
CLASSIFICATION_TYPE = U
NORAD_CAT_ID   = 13819
ELEMENT_SET_NO = 999
REV_AT_EPOCH   = 34830
BSTAR          = .34497912E-3
MEAN_MOTION_DOT = .15976E-3
MEAN_MOTION_DDOT = 0

CCSDS_OMM_VERS = 2.0
CREATION_DATE  = 
ORIGINATOR     = 

OBJECT_NAME    = SL-3 R/B
OBJECT_ID      = 1983-075B
CENTER_NAME    = EARTH
REF_FRAME      = TEME
TIME_SYSTEM    = UTC
MEAN_ELEMENT_THEORY = SGP/SGP4

EPOCH          = 2026-01-06T06:37:10.544736
MEAN_MOTION    = 15.36743433
ECCENTRICITY   = .00245625
INCLINATION    = 97.6111
RA_OF_ASC_NODE = 8.5929
ARG_OF_PERICENTER = 92.7458
MEAN_ANOMALY   = 267.6597

EPHEMERIS_TYPE = 0
CLASSIFICATION_TYPE = U
NORAD_CAT_ID   = 14208
ELEMENT_SET_NO = 999
REV_AT_EPOCH   = 32056
BSTAR          = .34915741E-3
MEAN_MOTION_DOT = .12579E-3
MEAN_MOTION_DDOT = 0

CCSDS_OMM_VERS = 2.0
CREATION_DATE  = 
ORIGINATOR     = 

OBJECT_NAME    = COSMOS 1536
OBJECT_ID      = 1984-013A
CENTER_NAME    = EARTH
REF_FRAME      = TEME
TIME_SYSTEM    = UTC
MEAN_ELEMENT_THEORY = SGP/SGP4

EPOCH          = 2026-01-06T04:29:11.537376
MEAN_MOTION    = 15.22897427
ECCENTRICITY   = .00152942
INCLINATION    = 82.5457
RA_OF_ASC_NODE = 169.9136
ARG_OF_PERICENTER = 138.9140
MEAN_ANOMALY   = 221.3252

EPHEMERIS_TYPE = 0
CLASSIFICATION_TYPE = U
NORAD_CAT_ID   = 14699
ELEMENT_SET_NO = 999
REV_AT_EPOCH   = 26310
BSTAR          = .38073172E-3
MEAN_MOTION_DOT = .8985E-4
MEAN_MOTION_DDOT = 0

CCSDS_OMM_VERS = 2.0
CREATION_DATE  = 
ORIGINATOR     = 

OBJECT_NAME    = SL-14 R/B
OBJECT_ID      = 1984-027B
CENTER_NAME    = EARTH
REF_FRAME      = TEME
TIME_SYSTEM    = UTC
MEAN_ELEMENT_THEORY = SGP/SGP4

EPOCH          = 2026-01-06T06:28:37.689024
MEAN_MOTION    = 14.85906561
ECCENTRICITY   = .00179744
INCLINATION    = 82.5430
RA_OF_ASC_NODE = 303.5536
ARG_OF_PERICENTER = 175.2203
MEAN_ANOMALY   = 184.9188

EPHEMERIS_TYPE = 0
CLASSIFICATION_TYPE = U
NORAD_CAT_ID   = 14820
ELEMENT_SET_NO = 999
REV_AT_EPOCH   = 23836
BSTAR          = .74402203E-4
MEAN_MOTION_DOT = .675E-5
MEAN_MOTION_DDOT = 0

CCSDS_OMM_VERS = 2.0
CREATION_DATE  = 
ORIGINATOR     = 

OBJECT_NAME    = SL-8 R/B
OBJECT_ID      = 1985-006B
CENTER_NAME    = EARTH
REF_FRAME      = TEME
TIME_SYSTEM    = UTC
MEAN_ELEMENT_THEORY = SGP/SGP4

EPOCH          = 2026-01-06T07:17:52.916352
MEAN_MOTION    = 14.37740254
ECCENTRICITY   = .00196355
INCLINATION    = 74.0458
RA_OF_ASC_NODE = 15.9375
ARG_OF_PERICENTER = 303.6592
MEAN_ANOMALY   = 66.9273

EPHEMERIS_TYPE = 0
CLASSIFICATION_TYPE = U
NORAD_CAT_ID   = 15483
ELEMENT_SET_NO = 999
REV_AT_EPOCH   = 14506
BSTAR          = .13227933E-3
MEAN_MOTION_DOT = .372E-5
MEAN_MOTION_DDOT = 0

CCSDS_OMM_VERS = 2.0
CREATION_DATE  = 
ORIGINATOR     = 

OBJECT_NAME    = SL-12 R/B(2)
OBJECT_ID      = 1985-042D
CENTER_NAME    = EARTH
REF_FRAME      = TEME
TIME_SYSTEM    = UTC
MEAN_ELEMENT_THEORY = SGP/SGP4

EPOCH          = 2026-01-06T07:39:12.526272
MEAN_MOTION    = 14.21960068
ECCENTRICITY   = .00368853
INCLINATION    = 71.1066
RA_OF_ASC_NODE = 219.4951
ARG_OF_PERICENTER = 225.2749
MEAN_ANOMALY   = 307.6579

EPHEMERIS_TYPE = 0
CLASSIFICATION_TYPE = U
NORAD_CAT_ID   = 15772
ELEMENT_SET_NO = 999
REV_AT_EPOCH   = 10552
BSTAR          = .58772297E-4
MEAN_MOTION_DOT = .83E-6
MEAN_MOTION_DDOT = 0

CCSDS_OMM_VERS = 2.0
CREATION_DATE  = 
ORIGINATOR     = 

OBJECT_NAME    = SL-14 R/B
OBJECT_ID      = 1985-069B
CENTER_NAME    = EARTH
REF_FRAME      = TEME
TIME_SYSTEM    = UTC
MEAN_ELEMENT_THEORY = SGP/SGP4

EPOCH          = 2026-01-06T06:34:03.404064
MEAN_MOTION    = 14.86357125
ECCENTRICITY   = .00197863
INCLINATION    = 82.5267
RA_OF_ASC_NODE = 83.6386
ARG_OF_PERICENTER = 42.8240
MEAN_ANOMALY   = 317.4514

EPHEMERIS_TYPE = 0
CLASSIFICATION_TYPE = U
NORAD_CAT_ID   = 15945
ELEMENT_SET_NO = 999
REV_AT_EPOCH   = 16356
BSTAR          = .69518637E-4
MEAN_MOTION_DOT = .639E-5
MEAN_MOTION_DDOT = 0

CCSDS_OMM_VERS = 2.0
CREATION_DATE  = 
ORIGINATOR     = 

OBJECT_NAME    = SL-16 R/B
OBJECT_ID      = 1985-097B
CENTER_NAME    = EARTH
REF_FRAME      = TEME
TIME_SYSTEM    = UTC
MEAN_ELEMENT_THEORY = SGP/SGP4

EPOCH          = 2026-01-06T03:48:44.665920
MEAN_MOTION    = 14.16588968
ECCENTRICITY   = .00081649
INCLINATION    = 71.0032
RA_OF_ASC_NODE = 272.1958
ARG_OF_PERICENTER = 335.1789
MEAN_ANOMALY   = 176.4289

EPHEMERIS_TYPE = 0
CLASSIFICATION_TYPE = U
NORAD_CAT_ID   = 16182
ELEMENT_SET_NO = 999
REV_AT_EPOCH   = 7837
BSTAR          = .17561797E-3
MEAN_MOTION_DOT = .303E-5
MEAN_MOTION_DDOT = 0

CCSDS_OMM_VERS = 2.0
CREATION_DATE  = 
ORIGINATOR     = 

OBJECT_NAME    = SL-14 R/B
OBJECT_ID      = 1986-006B
CENTER_NAME    = EARTH
REF_FRAME      = TEME
TIME_SYSTEM    = UTC
MEAN_ELEMENT_THEORY = SGP/SGP4

EPOCH          = 2026-01-06T06:23:50.499744
MEAN_MOTION    = 14.86709899
ECCENTRICITY   = .00780516
INCLINATION    = 82.5284
RA_OF_ASC_NODE = 318.4742
ARG_OF_PERICENTER = 119.0478
MEAN_ANOMALY   = 241.8587

EPHEMERIS_TYPE = 0
CLASSIFICATION_TYPE = U
NORAD_CAT_ID   = 16496
ELEMENT_SET_NO = 999
REV_AT_EPOCH   = 13993
BSTAR          = .89859518E-4
MEAN_MOTION_DOT = .872E-5
MEAN_MOTION_DDOT = 0

CCSDS_OMM_VERS = 2.0
CREATION_DATE  = 
ORIGINATOR     = 

OBJECT_NAME    = COSMOS 1743
OBJECT_ID      = 1986-034A
CENTER_NAME    = EARTH
REF_FRAME      = TEME
TIME_SYSTEM    = UTC
MEAN_ELEMENT_THEORY = SGP/SGP4

EPOCH          = 2026-01-06T08:00:54.323712
MEAN_MOTION    = 15.53870203
ECCENTRICITY   = .00051293
INCLINATION    = 82.5360
RA_OF_ASC_NODE = 139.0175
ARG_OF_PERICENTER = 156.9250
MEAN_ANOMALY   = 203.2235

EPHEMERIS_TYPE = 0
CLASSIFICATION_TYPE = U
NORAD_CAT_ID   = 16719
ELEMENT_SET_NO = 999
REV_AT_EPOCH   = 17055
BSTAR          = .55133015E-3
MEAN_MOTION_DOT = .35616E-3
MEAN_MOTION_DDOT = 0

